{"type": "FeatureCollection", "features": [ {"type": "Feature", "properties": {"norad_id": 35287, "name": "COSMOS 2251 DEB", "group": "cosmos-2251-debris", "lat": -44.0461977260938, "lon": -94.36863697555202, "alt_km": 771.6680193296861, "timestamp": "2025-12-09T16:56:36.970286+00:00", "meta": {"OBJECT_NAME": "COSMOS 2251 DEB", "OBJECT_ID": "1993-036AJR", "EPOCH": "2025-12-08T06:45:42.279840", "MEAN_MOTION": 14.36370501, "ECCENTRICITY": 0.00173563, "INCLINATION": 74.0304, "RA_OF_ASC_NODE": 284.3273, "ARG_OF_PERICENTER": 22.2122, "MEAN_ANOMALY": 130.0196, "EPHEMERIS_TYPE": 0, "CLASSIFICATION_TYPE": "U", "NORAD_CAT_ID": 35287, "ELEMENT_SET_NO": 999, "REV_AT_EPOCH": 86828, "BSTAR": 0.00029165774, "MEAN_MOTION_DOT": 8.29e-06, "MEAN_MOTION_DDOT": 0}, "tle": {"line1": "1 35287U 93036AJR 25342.28173935  .00000829  00000+0  29166-3 0  9995", "line2": "2 35287  74.0304 284.3273 0017356  22.2122 130.0196 14.36370501868289"}}, "geometry": {"type": "Point", "coordinates": [-94.36863697555202, -44.0461977260938]}}, {"type": "Feature", "properties": {"norad_id": 35288, "name": "COSMOS 2251 DEB", "group": "cosmos-2251-debris", "lat": 31.554553910891546, "lon": -169.13771944132628, "alt_km": 682.1491997154089, "timestamp": "2025-12-09T16:56:36.970296+00:00", "meta": {"OBJECT_NAME": "COSMOS 2251 DEB", "OBJECT_ID": "1993-036AJS", "EPOCH": "2025-12-08T18:58:17.923872", "MEAN_MOTION": 14.65390759, "ECCENTRICITY": 0.00395539, "INCLINATION": 73.9507, "RA_OF_ASC_NODE": 22.8152, "ARG_OF_PERICENTER": 256.8588, "MEAN_ANOMALY": 102.8165, "EPHEMERIS_TYPE": 0, "CLASSIFICATION_TYPE": "U", "NORAD_CAT_ID": 35288, "ELEMENT_SET_NO": 999, "REV_AT_EPOCH": 87820, "BSTAR": 0.0016009913, "MEAN_MOTION_DOT": 8.734e-05, "MEAN_MOTION_DDOT": 0}, "tle": {"line1": "1 35288U 93036AJS 25342.79048523  .00008734  00000+0  16010-2 0  9992", "line2": "2 35288  73.9507  22.8152 0039553 256.8588 102.8165 14.65390759878203"}}, "geometry": {"type": "Point", "coordinates": [-169.13771944132628, 31.554553910891546]}}, {"type": "Feature", "properties": {"norad_id": 35290, "name": "COSMOS 2251 DEB", "group": "cosmos-2251-debris", "lat": -72.97624003741957, "lon": -45.050523944954946, "alt_km": 634.6678403282303, "timestamp": "2025-12-09T16:56:36.970306+00:00", "meta": {"OBJECT_NAME": "COSMOS 2251 DEB", "OBJECT_ID": "1993-036AJU", "EPOCH": "2025-12-08T12:10:44.215680", "MEAN_MOTION": 14.8018119, "ECCENTRICITY": 0.00027465, "INCLINATION": 74.0052, "RA_OF_ASC_NODE": 67.7898, "ARG_OF_PERICENTER": 203.6265, "MEAN_ANOMALY": 156.4785, "EPHEMERIS_TYPE": 0, "CLASSIFICATION_TYPE": "U", "NORAD_CAT_ID": 35290, "ELEMENT_SET_NO": 999, "REV_AT_EPOCH": 87895, "BSTAR": 0.002766883, "MEAN_MOTION_DOT": 0.00021059, "MEAN_MOTION_DDOT": 0}, "tle": {"line1": "1 35290U 93036AJU 25342.50745620  .00021059  00000+0  27669-2 0  9993", "line2": "2 35290  74.0052  67.7898 0002746 203.6265 156.4785 14.80181190878953"}}, "geometry": {"type": "Point", "coordinates": [-45.050523944954946, -72.97624003741957]}}, {"type": "Feature", "properties": {"norad_id": 35432, "name": "COSMOS 2251 DEB", "group": "cosmos-2251-debris", "lat": 33.46659149297503, "lon": 32.858911123671255, "alt_km": 492.2272741605084, "timestamp": "2025-12-09T16:56:36.970316+00:00", "meta": {"OBJECT_NAME": "COSMOS 2251 DEB", "OBJECT_ID": "1993-036AKA", "EPOCH": "2025-12-09T08:54:07.949376", "MEAN_MOTION": 15.21822347, "ECCENTRICITY": 0.0012374, "INCLINATION": 74.0213, "RA_OF_ASC_NODE": 22.6447, "ARG_OF_PERICENTER": 345.4423, "MEAN_ANOMALY": 14.6417, "EPHEMERIS_TYPE": 0, "CLASSIFICATION_TYPE": "U", "NORAD_CAT_ID": 35432, "ELEMENT_SET_NO": 999, "REV_AT_EPOCH": 87452, "BSTAR": 0.0069782, "MEAN_MOTION_DOT": 0.00162395, "MEAN_MOTION_DDOT": 0}, "tle": {"line1": "1 35432U 93036AKA 25343.37092534  .00162395  00000+0  69782-2 0  9997", "line2": "2 35432  74.0213  22.6447 0012374 345.4423  14.6417 15.21822347874527"}}, "geometry": {"type": "Point", "coordinates": [32.858911123671255, 33.46659149297503]}}, {"type": "Feature", "properties": {"norad_id": 35433, "name": "COSMOS 2251 DEB", "group": "cosmos-2251-debris", "lat": 74.02348685556805, "lon": 73.69364827331034, "alt_km": 756.6602716071739, "timestamp": "2025-12-09T16:56:36.970326+00:00", "meta": {"OBJECT_NAME": "COSMOS 2251 DEB", "OBJECT_ID": "1993-036AKB", "EPOCH": "2025-12-05T19:38:16.327392", "MEAN_MOTION": 14.34730306, "ECCENTRICITY": 0.00254596, "INCLINATION": 74.0335, "RA_OF_ASC_NODE": 351.128, "ARG_OF_PERICENTER": 48.4343, "MEAN_ANOMALY": 128.9694, "EPHEMERIS_TYPE": 0, "CLASSIFICATION_TYPE": "U", "NORAD_CAT_ID": 35433, "ELEMENT_SET_NO": 999, "REV_AT_EPOCH": 86481, "BSTAR": 0.00044039966, "MEAN_MOTION_DOT": 1.226e-05, "MEAN_MOTION_DDOT": 0}, "tle": {"line1": "1 35433U 93036AKB 25339.81824453  .00001226  00000+0  44040-3 0  9991", "line2": "2 35433  74.0335 351.1280 0025459  48.4343 128.9694 14.34730306864810"}}, "geometry": {"type": "Point", "coordinates": [73.69364827331034, 74.02348685556805]}}, {"type": "Feature", "properties": {"norad_id": 35434, "name": "COSMOS 2251 DEB", "group": "cosmos-2251-debris", "lat": 69.0734502664554, "lon": -9.347152107842197, "alt_km": 861.6279571672203, "timestamp": "2025-12-09T16:56:36.970337+00:00", "meta": {"OBJECT_NAME": "COSMOS 2251 DEB", "OBJECT_ID": "1993-036AKC", "EPOCH": "2025-12-09T09:43:08.291712", "MEAN_MOTION": 14.25673579, "ECCENTRICITY": 0.0087552, "INCLINATION": 74.0403, "RA_OF_ASC_NODE": 219.6443, "ARG_OF_PERICENTER": 291.0681, "MEAN_ANOMALY": 68.1121, "EPHEMERIS_TYPE": 0, "CLASSIFICATION_TYPE": "U", "NORAD_CAT_ID": 35434, "ELEMENT_SET_NO": 999, "REV_AT_EPOCH": 86070, "BSTAR": 0.0010639, "MEAN_MOTION_DOT": 2.601e-05, "MEAN_MOTION_DDOT": 0}, "tle": {"line1": "1 35434U 93036AKC 25343.40495708  .00002601  00000+0  10639-2 0  9993", "line2": "2 35434  74.0403 219.6443 0087552 291.0681  68.1121 14.25673579860701"}}, "geometry": {"type": "Point", "coordinates": [-9.347152107842197, 69.0734502664554]}}, {"type": "Feature", "properties": {"norad_id": 35435, "name": "COSMOS 2251 DEB", "group": "cosmos-2251-debris", "lat": 71.77518111734967, "lon": 170.5978051403753, "alt_km": 630.6425523278667, "timestamp": "2025-12-09T16:56:36.970347+00:00", "meta": {"OBJECT_NAME": "COSMOS 2251 DEB", "OBJECT_ID": "1993-036AKD", "EPOCH": "2025-12-09T02:44:38.582016", "MEAN_MOTION": 14.78272174, "ECCENTRICITY": 0.00085121, "INCLINATION": 74.01, "RA_OF_ASC_NODE": 111.2002, "ARG_OF_PERICENTER": 205.072, "MEAN_ANOMALY": 328.8509, "EPHEMERIS_TYPE": 0, "CLASSIFICATION_TYPE": "U", "NORAD_CAT_ID": 35435, "ELEMENT_SET_NO": 999, "REV_AT_EPOCH": 87485, "BSTAR": 0.0029065357, "MEAN_MOTION_DOT": 0.00021157, "MEAN_MOTION_DDOT": 0}, "tle": {"line1": "1 35435U 93036AKD 25343.11433544  .00021157  00000+0  29065-2 0  9992", "line2": "2 35435  74.0100 111.2002 0008512 205.0720 328.8509 14.78272174874853"}}, "geometry": {"type": "Point", "coordinates": [170.5978051403753, 71.77518111734967]}}, {"type": "Feature", "properties": {"norad_id": 35439, "name": "COSMOS 2251 DEB", "group": "cosmos-2251-debris", "lat": -39.692809794954556, "lon": -26.303097085906078, "alt_km": 915.6892877330856, "timestamp": "2025-12-09T16:56:36.970357+00:00", "meta": {"OBJECT_NAME": "COSMOS 2251 DEB", "OBJECT_ID": "1993-036AKH", "EPOCH": "2025-12-08T17:33:33.231168", "MEAN_MOTION": 13.92782846, "ECCENTRICITY": 0.02417385, "INCLINATION": 74.0192, "RA_OF_ASC_NODE": 141.6061, "ARG_OF_PERICENTER": 311.7957, "MEAN_ANOMALY": 68.9858, "EPHEMERIS_TYPE": 0, "CLASSIFICATION_TYPE": "U", "NORAD_CAT_ID": 35439, "ELEMENT_SET_NO": 999, "REV_AT_EPOCH": 83905, "BSTAR": 0.0023365904, "MEAN_MOTION_DOT": 3.821e-05, "MEAN_MOTION_DDOT": 0}, "tle": {"line1": "1 35439U 93036AKH 25342.73163462  .00003821  00000+0  23366-2 0  9998", "line2": "2 35439  74.0192 141.6061 0241738 311.7957  68.9858 13.92782846839055"}}, "geometry": {"type": "Point", "coordinates": [-26.303097085906078, -39.692809794954556]}}, {"type": "Feature", "properties": {"norad_id": 35440, "name": "COSMOS 2251 DEB", "group": "cosmos-2251-debris", "lat": -5.7004297280681975, "lon": 35.145398839481025, "alt_km": 716.1160906104087, "timestamp": "2025-12-09T16:56:36.970368+00:00", "meta": {"OBJECT_NAME": "COSMOS 2251 DEB", "OBJECT_ID": "1993-036AKJ", "EPOCH": "2025-12-08T09:02:26.366784", "MEAN_MOTION": 14.68778885, "ECCENTRICITY": 0.0069124, "INCLINATION": 74.0147, "RA_OF_ASC_NODE": 216.0804, "ARG_OF_PERICENTER": 357.9704, "MEAN_ANOMALY": 2.1175, "EPHEMERIS_TYPE": 0, "CLASSIFICATION_TYPE": "U", "NORAD_CAT_ID": 35440, "ELEMENT_SET_NO": 999, "REV_AT_EPOCH": 68701, "BSTAR": 0.00070103994, "MEAN_MOTION_DOT": 4.21e-05, "MEAN_MOTION_DDOT": 0}, "tle": {"line1": "1 35440U 93036AKJ 25342.37669406  .00004210  00000+0  70104-3 0  9995", "line2": "2 35440  74.0147 216.0804 0069124 357.9704   2.1175 14.68778885687019"}}, "geometry": {"type": "Point", "coordinates": [35.145398839481025, -5.7004297280681975]}}, {"type": "Feature", "properties": {"norad_id": 35441, "name": "COSMOS 2251 DEB", "group": "cosmos-2251-debris", "lat": -26.824136281608965, "lon": 132.14653578528052, "alt_km": 664.289031978893, "timestamp": "2025-12-09T16:56:36.970378+00:00", "meta": {"OBJECT_NAME": "COSMOS 2251 DEB", "OBJECT_ID": "1993-036AKK", "EPOCH": "2025-12-08T15:22:12.064224", "MEAN_MOTION": 14.62488563, "ECCENTRICITY": 0.0037245, "INCLINATION": 74.1346, "RA_OF_ASC_NODE": 305.9066, "ARG_OF_PERICENTER": 204.2337, "MEAN_ANOMALY": 155.708, "EPHEMERIS_TYPE": 0, "CLASSIFICATION_TYPE": "U", "NORAD_CAT_ID": 35441, "ELEMENT_SET_NO": 999, "REV_AT_EPOCH": 87370, "BSTAR": 0.0024987, "MEAN_MOTION_DOT": 0.00012785, "MEAN_MOTION_DDOT": 0}, "tle": {"line1": "1 35441U 93036AKK 25342.64041741  .00012785  00000+0  24987-2 0  9995", "line2": "2 35441  74.1346 305.9066 0037245 204.2337 155.7080 14.62488563873703"}}, "geometry": {"type": "Point", "coordinates": [132.14653578528052, -26.824136281608965]}}]}